{"fetched_at":"2026-07-20T07:40:22.620Z","source":"https://celestrak.org/NORAD/elements/gp.php?GROUP=oneweb&FORMAT=JSON","constellation":"oneweb","records":[{"OBJECT_NAME":"ONEWEB-0588","OBJECT_ID":"2023-004P","EPOCH":"2026-07-19T19:27:50.501952","CLASSIFICATION_TYPE":"U","MEAN_MOTION":13.18686634,"ECCENTRICITY":0.0002053,"INCLINATION":87.9192,"RA_OF_ASC_NODE":328.9801,"ARG_OF_PERICENTER":86.1787,"MEAN_ANOMALY":273.958,"EPHEMERIS_TYPE":0,"NORAD_CAT_ID":55153,"ELEMENT_SET_NO":999,"REV_AT_EPOCH":17399,"BSTAR":0.000064016,"MEAN_MOTION_DOT":3.8e-7,"MEAN_MOTION_DDOT":0},{"OBJECT_NAME":"ONEWEB-0598","OBJECT_ID":"2023-004Q","EPOCH":"2026-07-19T10:24:39.348000","CLASSIFICATION_TYPE":"U","MEAN_MOTION":13.11417007,"ECCENTRICITY":0.00025522,"INCLINATION":87.8887,"RA_OF_ASC_NODE":14.6469,"ARG_OF_PERICENTER":96.6552,"MEAN_ANOMALY":263.4866,"EPHEMERIS_TYPE":0,"NORAD_CAT_ID":55154,"ELEMENT_SET_NO":999,"REV_AT_EPOCH":17012,"BSTAR":-0.0015393854,"MEAN_MOTION_DOT":-0.00000533,"MEAN_MOTION_DDOT":0},{"OBJECT_NAME":"ONEWEB-0599","OBJECT_ID":"2023-004R","EPOCH":"2026-07-19T19:54:13.533984","CLASSIFICATION_TYPE":"U","MEAN_MOTION":13.17648612,"ECCENTRICITY":0.000194,"INCLINATION":87.9151,"RA_OF_ASC_NODE":359.3704,"ARG_OF_PERICENTER":100.2851,"MEAN_ANOMALY":259.8499,"EPHEMERIS_TYPE":0,"NORAD_CAT_ID":55155,"ELEMENT_SET_NO":999,"REV_AT_EPOCH":17178,"BSTAR":-0.00047046,"MEAN_MOTION_DOT":-0.0000017,"MEAN_MOTION_DDOT":0},{"OBJECT_NAME":"ONEWEB-0614","OBJECT_ID":"2023-004S","EPOCH":"2026-07-19T17:36:47.993184","CLASSIFICATION_TYPE":"U","MEAN_MOTION":13.11415952,"ECCENTRICITY":0.0001719,"INCLINATION":87.8884,"RA_OF_ASC_NODE":14.5951,"ARG_OF_PERICENTER":85.1991,"MEAN_ANOMALY":274.9333,"EPHEMERIS_TYPE":0,"NORAD_CAT_ID":55156,"ELEMENT_SET_NO":999,"REV_AT_EPOCH":17010,"BSTAR":-0.00099836,"MEAN_MOTION_DOT":-0.00000341,"MEAN_MOTION_DDOT":0},{"OBJECT_NAME":"ONEWEB-0616","OBJECT_ID":"2023-004T","EPOCH":"2026-07-19T11:48:13.893408","CLASSIFICATION_TYPE":"U","MEAN_MOTION":13.17648887,"ECCENTRICITY":0.00019848,"INCLINATION":87.9151,"RA_OF_ASC_NODE":359.4417,"ARG_OF_PERICENTER":121.6687,"MEAN_ANOMALY":238.4638,"EPHEMERIS_TYPE":0,"NORAD_CAT_ID":55157,"ELEMENT_SET_NO":999,"REV_AT_EPOCH":17195,"BSTAR":-0.0003669454,"MEAN_MOTION_DOT":-0.0000013,"MEAN_MOTION_DDOT":0},{"OBJECT_NAME":"ONEWEB-0617","OBJECT_ID":"2023-004U","EPOCH":"2026-07-19T11:50:06.070848","CLASSIFICATION_TYPE":"U","MEAN_MOTION":13.11416491,"ECCENTRICITY":0.00018433,"INCLINATION":87.8891,"RA_OF_ASC_NODE":14.6364,"ARG_OF_PERICENTER":77.8476,"MEAN_ANOMALY":282.2859,"EPHEMERIS_TYPE":0,"NORAD_CAT_ID":55158,"ELEMENT_SET_NO":999,"REV_AT_EPOCH":17009,"BSTAR":0.00006385865,"MEAN_MOTION_DOT":3.5e-7,"MEAN_MOTION_DDOT":0},{"OBJECT_NAME":"ONEWEB-0618","OBJECT_ID":"2023-004V","EPOCH":"2026-07-19T20:34:55.915104","CLASSIFICATION_TYPE":"U","MEAN_MOTION":15.13432512,"ECCENTRICITY":0.0013001,"INCLINATION":86.9109,"RA_OF_ASC_NODE":164.3691,"ARG_OF_PERICENTER":158.5905,"MEAN_ANOMALY":201.5881,"EPHEMERIS_TYPE":0,"NORAD_CAT_ID":55159,"ELEMENT_SET_NO":999,"REV_AT_EPOCH":18720,"BSTAR":0.00025859,"MEAN_MOTION_DOT":0.0000466,"MEAN_MOTION_DDOT":0},{"OBJECT_NAME":"ONEWEB-0619","OBJECT_ID":"2023-004W","EPOCH":"2026-07-19T19:51:47.735712","CLASSIFICATION_TYPE":"U","MEAN_MOTION":13.17647887,"ECCENTRICITY":0.0001427,"INCLINATION":87.9164,"RA_OF_ASC_NODE":359.3583,"ARG_OF_PERICENTER":94.05,"MEAN_ANOMALY":266.0794,"EPHEMERIS_TYPE":0,"NORAD_CAT_ID":55160,"ELEMENT_SET_NO":999,"REV_AT_EPOCH":17189,"BSTAR":-0.00068194,"MEAN_MOTION_DOT":-0.00000252,"MEAN_MOTION_DDOT":0},{"OBJECT_NAME":"ONEWEB-0620","OBJECT_ID":"2023-004X","EPOCH":"2026-07-19T17:12:23.571072","CLASSIFICATION_TYPE":"U","MEAN_MOTION":13.11415887,"ECCENTRICITY":0.0002102,"INCLINATION":87.8883,"RA_OF_ASC_NODE":14.5981,"ARG_OF_PERICENTER":89.9396,"MEAN_ANOMALY":270.1973,"EPHEMERIS_TYPE":0,"NORAD_CAT_ID":55161,"ELEMENT_SET_NO":999,"REV_AT_EPOCH":17009,"BSTAR":0.00090687,"MEAN_MOTION_DOT":0.00000334,"MEAN_MOTION_DDOT":0},{"OBJECT_NAME":"ONEWEB-0621","OBJECT_ID":"2023-004Y","EPOCH":"2026-07-19T10:31:59.025504","CLASSIFICATION_TYPE":"U","MEAN_MOTION":13.11417107,"ECCENTRICITY":0.00016854,"INCLINATION":87.8895,"RA_OF_ASC_NODE":14.6454,"ARG_OF_PERICENTER":85.0731,"MEAN_ANOMALY":275.0589,"EPHEMERIS_TYPE":0,"NORAD_CAT_ID":55162,"ELEMENT_SET_NO":999,"REV_AT_EPOCH":17003,"BSTAR":-0.0014495295,"MEAN_MOTION_DOT":-0.00000501,"MEAN_MOTION_DDOT":0},{"OBJECT_NAME":"ONEWEB-0622","OBJECT_ID":"2023-004Z","EPOCH":"2026-07-19T10:39:18.607104","CLASSIFICATION_TYPE":"U","MEAN_MOTION":13.11417885,"ECCENTRICITY":0.00020497,"INCLINATION":87.8894,"RA_OF_ASC_NODE":14.6478,"ARG_OF_PERICENTER":70.4928,"MEAN_ANOMALY":289.6421,"EPHEMERIS_TYPE":0,"NORAD_CAT_ID":55163,"ELEMENT_SET_NO":999,"REV_AT_EPOCH":17002,"BSTAR":-0.0011509389,"MEAN_MOTION_DOT":-0.00000395,"MEAN_MOTION_DDOT":0},{"OBJECT_NAME":"ONEWEB-0623","OBJECT_ID":"2023-004AA","EPOCH":"2026-07-19T19:44:31.070976","CLASSIFICATION_TYPE":"U","MEAN_MOTION":13.17648099,"ECCENTRICITY":0.0001472,"INCLINATION":87.9151,"RA_OF_ASC_NODE":359.3852,"ARG_OF_PERICENTER":68.2892,"MEAN_ANOMALY":291.8396,"EPHEMERIS_TYPE":0,"NORAD_CAT_ID":55164,"ELEMENT_SET_NO":999,"REV_AT_EPOCH":17188,"BSTAR":-0.000029769,"MEAN_MOTION_DOT":1e-8,"MEAN_MOTION_DDOT":0},{"OBJECT_NAME":"ONEWEB-0624","OBJECT_ID":"2023-004AB","EPOCH":"2026-07-19T19:29:45.407040","CLASSIFICATION_TYPE":"U","MEAN_MOTION":13.12928973,"ECCENTRICITY":0.0001764,"INCLINATION":87.8973,"RA_OF_ASC_NODE":344.0934,"ARG_OF_PERICENTER":92.4161,"MEAN_ANOMALY":267.7169,"EPHEMERIS_TYPE":0,"NORAD_CAT_ID":55165,"ELEMENT_SET_NO":999,"REV_AT_EPOCH":17235,"BSTAR":-0.00089857,"MEAN_MOTION_DOT":-0.00000313,"MEAN_MOTION_DDOT":0},{"OBJECT_NAME":"ONEWEB-0625","OBJECT_ID":"2023-004AC","EPOCH":"2026-07-19T10:23:11.366016","CLASSIFICATION_TYPE":"U","MEAN_MOTION":13.17647873,"ECCENTRICITY":0.00017747,"INCLINATION":87.9151,"RA_OF_ASC_NODE":359.4597,"ARG_OF_PERICENTER":98.2233,"MEAN_ANOMALY":261.91,"EPHEMERIS_TYPE":0,"NORAD_CAT_ID":55166,"ELEMENT_SET_NO":999,"REV_AT_EPOCH":17182,"BSTAR":0.00013268697,"MEAN_MOTION_DOT":6.4e-7,"MEAN_MOTION_DDOT":0},{"OBJECT_NAME":"ONEWEB-0626","OBJECT_ID":"2023-004AD","EPOCH":"2026-07-19T19:15:22.008384","CLASSIFICATION_TYPE":"U","MEAN_MOTION":13.17649289,"ECCENTRICITY":0.000222,"INCLINATION":87.9151,"RA_OF_ASC_NODE":359.3856,"ARG_OF_PERICENTER":97.2642,"MEAN_ANOMALY":262.8741,"EPHEMERIS_TYPE":0,"NORAD_CAT_ID":55167,"ELEMENT_SET_NO":999,"REV_AT_EPOCH":17187,"BSTAR":0.00016405,"MEAN_MOTION_DOT":7.7e-7,"MEAN_MOTION_DDOT":0},{"OBJECT_NAME":"ONEWEB-0627","OBJECT_ID":"2023-004AE","EPOCH":"2026-07-19T20:47:42.194112","CLASSIFICATION_TYPE":"U","MEAN_MOTION":13.17648402,"ECCENTRICITY":0.0001581,"INCLINATION":87.915,"RA_OF_ASC_NODE":359.3732,"ARG_OF_PERICENTER":79.5388,"MEAN_ANOMALY":280.5921,"EPHEMERIS_TYPE":0,"NORAD_CAT_ID":55168,"ELEMENT_SET_NO":999,"REV_AT_EPOCH":17188,"BSTAR":0.0000026361,"MEAN_MOTION_DOT":1.4e-7,"MEAN_MOTION_DDOT":0}]}
