ONEWEB-0588             
1 55153U 23004P   26200.81100118  .00000038  00000+0  64016-4 0  9999
2 55153  87.9192 328.9801 0002053  86.1787 273.9580 13.18686634173994
ONEWEB-0598             
1 55154U 23004Q   26200.43378875 -.00000533  00000+0 -15394-2 0  9990
2 55154  87.8887  14.6469 0002552  96.6552 263.4866 13.11417007170126
ONEWEB-0599             
1 55155U 23004R   26200.82932331 -.00000170  00000+0 -47046-3 0  9994
2 55155  87.9151 359.3704 0001940 100.2851 259.8499 13.17648612171785
ONEWEB-0614             
1 55156U 23004S   26200.73388881 -.00000341  00000+0 -99836-3 0  9994
2 55156  87.8884  14.5951 0001719  85.1991 274.9333 13.11415952170105
ONEWEB-0616             
1 55157U 23004T   26200.49182747 -.00000130  00000+0 -36695-3 0  9991
2 55157  87.9151 359.4417 0001984 121.6687 238.4638 13.17648887171952
ONEWEB-0617             
1 55158U 23004U   26200.49312582  .00000035  00000+0  63859-4 0  9999
2 55158  87.8891  14.6364 0001843  77.8476 282.2859 13.11416491170090
ONEWEB-0618             
1 55159U 23004V   26200.85759161  .00004660  00000+0  25859-3 0  9993
2 55159  86.9109 164.3691 0013001 158.5905 201.5881 15.13432512187208
ONEWEB-0619             
1 55160U 23004W   26200.82763583 -.00000252  00000+0 -68194-3 0  9999
2 55160  87.9164 359.3583 0001427  94.0500 266.0794 13.17647887171894
ONEWEB-0620             
1 55161U 23004X   26200.71693948  .00000334  00000+0  90687-3 0  9996
2 55161  87.8883  14.5981 0002102  89.9396 270.1973 13.11415887170094
ONEWEB-0621             
1 55162U 23004Y   26200.43887761 -.00000501  00000+0 -14495-2 0  9994
2 55162  87.8895  14.6454 0001685  85.0731 275.0589 13.11417107170037
ONEWEB-0622             
1 55163U 23004Z   26200.44396536 -.00000395  00000+0 -11509-2 0  9995
2 55163  87.8894  14.6478 0002049  70.4928 289.6421 13.11417885170022
ONEWEB-0623             
1 55164U 23004AA  26200.82258184  .00000001  00000+0 -29769-4 0  9996
2 55164  87.9151 359.3852 0001472  68.2892 291.8396 13.17648099171889
ONEWEB-0624             
1 55165U 23004AB  26200.81233110 -.00000313  00000+0 -89857-3 0  9998
2 55165  87.8973 344.0934 0001764  92.4161 267.7169 13.12928973172355
ONEWEB-0625             
1 55166U 23004AC  26200.43277044  .00000064  00000+0  13269-3 0  9996
2 55166  87.9151 359.4597 0001774  98.2233 261.9100 13.17647873171829
ONEWEB-0626             
1 55167U 23004AD  26200.80233806  .00000077  00000+0  16405-3 0  9995
2 55167  87.9151 359.3856 0002220  97.2642 262.8741 13.17649289171876
ONEWEB-0627             
1 55168U 23004AE  26200.86646058  .00000014  00000+0  26361-5 0  9994
2 55168  87.9150 359.3732 0001581  79.5388 280.5921 13.17648402171882
